{
  "type": "FeatureCollection",
  "features": [
    {
      "type": "Feature",
      "properties": {
        "norad_id": 41890,
        "name": "CYGFM07",
        "group": "weather",
        "lat": 29.799265161664493,
        "lon": -145.71528052533358,
        "alt_km": 406.9875757322807,
        "timestamp": "2025-12-02T08:59:32.362371+00:00",
        "meta_object_name": "CYGFM07",
        "meta_object_id": "2016-078G",
        "meta_epoch": "2025-12-02T00:44:47.459040",
        "meta_mean_motion": 15.49334806,
        "meta_eccentricity": 0.0008846,
        "meta_inclination": 34.9467,
        "meta_ra_of_asc_node": 91.629,
        "meta_arg_of_pericenter": 116.2049,
        "meta_mean_anomaly": 243.9583,
        "meta_ephemeris_type": 0,
        "meta_classification_type": "U",
        "meta_norad_cat_id": 41890,
        "meta_element_set_no": 999,
        "meta_rev_at_epoch": 49829,
        "meta_bstar": 0.00046562,
        "meta_mean_motion_dot": 0.0002637,
        "meta_mean_motion_ddot": 0,
        "tle_line1": "1 41890U 16078G   25336.03110485  .00026370  00000+0  46562-3 0  9998",
        "tle_line2": "2 41890  34.9467  91.6290 0008846 116.2049 243.9583 15.49334806498292"
      },
      "geometry": {
        "type": "Point",
        "coordinates": [
          -145.71528052533358,
          29.799265161664493
        ]
      }
    },
    {
      "type": "Feature",
      "properties": {
        "norad_id": 41891,
        "name": "CYGFM03",
        "group": "weather",
        "lat": -22.519920966929014,
        "lon": 54.86016827789036,
        "alt_km": 424.8604315202829,
        "timestamp": "2025-12-02T08:59:32.362383+00:00",
        "meta_object_name": "CYGFM03",
        "meta_object_id": "2016-078H",
        "meta_epoch": "2025-12-01T17:42:27.482112",
        "meta_mean_motion": 15.49224271,
        "meta_eccentricity": 0.0008241,
        "meta_inclination": 34.9416,
        "meta_ra_of_asc_node": 95.4619,
        "meta_arg_of_pericenter": 98.9519,
        "meta_mean_anomaly": 261.2136,
        "meta_ephemeris_type": 0,
        "meta_classification_type": "U",
        "meta_norad_cat_id": 41891,
        "meta_element_set_no": 999,
        "meta_rev_at_epoch": 49822,
        "meta_bstar": 0.00044221,
        "meta_mean_motion_dot": 0.00024934,
        "meta_mean_motion_ddot": 0,
        "tle_line1": "1 41891U 16078H   25335.73781808  .00024934  00000+0  44221-3 0  9992",
        "tle_line2": "2 41891  34.9416  95.4619 0008241  98.9519 261.2136 15.49224271498225"
      },
      "geometry": {
        "type": "Point",
        "coordinates": [
          54.86016827789036,
          -22.519920966929014
        ]
      }
    },
    {
      "type": "Feature",
      "properties": {
        "norad_id": 43010,
        "name": "FENGYUN 3D",
        "group": "weather",
        "lat": -17.022297424242463,
        "lon": -54.69227006988839,
        "alt_km": 831.4374009249677,
        "timestamp": "2025-12-02T08:59:32.362394+00:00",
        "meta_object_name": "FENGYUN 3D",
        "meta_object_id": "2017-072A",
        "meta_epoch": "2025-12-02T03:59:56.177088",
        "meta_mean_motion": 14.19678683,
        "meta_eccentricity": 5.52e-05,
        "meta_inclination": 98.9878,
        "meta_ra_of_asc_node": 302.3193,
        "meta_arg_of_pericenter": 229.1037,
        "meta_mean_anomaly": 131.0091,
        "meta_ephemeris_type": 0,
        "meta_classification_type": "U",
        "meta_norad_cat_id": 43010,
        "meta_element_set_no": 999,
        "meta_rev_at_epoch": 41703,
        "meta_bstar": 8.6032e-05,
        "meta_mean_motion_dot": 1.36e-06,
        "meta_mean_motion_ddot": 0,
        "tle_line1": "1 43010U 17072A   25336.16662242  .00000136  00000+0  86032-4 0  9995",
        "tle_line2": "2 43010  98.9878 302.3193 0000552 229.1037 131.0091 14.19678683417039"
      },
      "geometry": {
        "type": "Point",
        "coordinates": [
          -54.69227006988839,
          -17.022297424242463
        ]
      }
    },
    {
      "type": "Feature",
      "properties": {
        "norad_id": 43013,
        "name": "NOAA 20 (JPSS-1)",
        "group": "weather",
        "lat": 38.06750885833369,
        "lon": 99.72011306166871,
        "alt_km": 822.9767033682829,
        "timestamp": "2025-12-02T08:59:32.362405+00:00",
        "meta_object_name": "NOAA 20 (JPSS-1)",
        "meta_object_id": "2017-073A",
        "meta_epoch": "2025-12-02T03:15:14.475744",
        "meta_mean_motion": 14.19521073,
        "meta_eccentricity": 0.0002046,
        "meta_inclination": 98.7583,
        "meta_ra_of_asc_node": 272.5491,
        "meta_arg_of_pericenter": 102.364,
        "meta_mean_anomaly": 257.7765,
        "meta_ephemeris_type": 0,
        "meta_classification_type": "U",
        "meta_norad_cat_id": 43013,
        "meta_element_set_no": 999,
        "meta_rev_at_epoch": 41651,
        "meta_bstar": 7.648e-05,
        "meta_mean_motion_dot": 1.17e-06,
        "meta_mean_motion_ddot": 0,
        "tle_line1": "1 43013U 17073A   25336.13558421  .00000117  00000+0  76480-4 0  9994",
        "tle_line2": "2 43013  98.7583 272.5491 0002046 102.3640 257.7765 14.19521073416510"
      },
      "geometry": {
        "type": "Point",
        "coordinates": [
          99.72011306166871,
          38.06750885833369
        ]
      }
    },
    {
      "type": "Feature",
      "properties": {
        "norad_id": 43226,
        "name": "GOES 17",
        "group": "weather",
        "lat": 0.20512725182274782,
        "lon": 116.81462052350585,
        "alt_km": 35799.6715847369,
        "timestamp": "2025-12-02T08:59:32.362425+00:00",
        "meta_object_name": "GOES 17",
        "meta_object_id": "2018-022A",
        "meta_epoch": "2025-12-02T03:05:09.477024",
        "meta_mean_motion": 1.00269914,
        "meta_eccentricity": 0.0003463,
        "meta_inclination": 0.4298,
        "meta_ra_of_asc_node": 89.3598,
        "meta_arg_of_pericenter": 180.8774,
        "meta_mean_anomaly": 117.7878,
        "meta_ephemeris_type": 0,
        "meta_classification_type": "U",
        "meta_norad_cat_id": 43226,
        "meta_element_set_no": 999,
        "meta_rev_at_epoch": 2844,
        "meta_bstar": 0,
        "meta_mean_motion_dot": -1.61e-06,
        "meta_mean_motion_ddot": 0,
        "tle_line1": "1 43226U 18022A   25336.12858191 -.00000161  00000+0  00000+0 0  9991",
        "tle_line2": "2 43226   0.4298  89.3598 0003463 180.8774 117.7878  1.00269914 28444"
      },
      "geometry": {
        "type": "Point",
        "coordinates": [
          116.81462052350585,
          0.20512725182274782
        ]
      }
    },
    {
      "type": "Feature",
      "properties": {
        "norad_id": 43491,
        "name": "FENGYUN 2H",
        "group": "weather",
        "lat": -1.049368602395987,
        "lon": -74.29875204013125,
        "alt_km": 35777.440442898245,
        "timestamp": "2025-12-02T08:59:32.362440+00:00",
        "meta_object_name": "FENGYUN 2H",
        "meta_object_id": "2018-050A",
        "meta_epoch": "2025-12-02T02:10:37.269696",
        "meta_mean_motion": 1.00271571,
        "meta_eccentricity": 0.0002844,
        "meta_inclination": 2.521,
        "meta_ra_of_asc_node": 81.4468,
        "meta_arg_of_pericenter": 161.4684,
        "meta_mean_anomaly": 300.2994,
        "meta_ephemeris_type": 0,
        "meta_classification_type": "U",
        "meta_norad_cat_id": 43491,
        "meta_element_set_no": 999,
        "meta_rev_at_epoch": 2746,
        "meta_bstar": 0,
        "meta_mean_motion_dot": -1.09e-06,
        "meta_mean_motion_ddot": 0,
        "tle_line1": "1 43491U 18050A   25336.09070914 -.00000109  00000+0  00000+0 0  9993",
        "tle_line2": "2 43491   2.5210  81.4468 0002844 161.4684 300.2994  1.00271571 27462"
      },
      "geometry": {
        "type": "Point",
        "coordinates": [
          -74.29875204013125,
          -1.049368602395987
        ]
      }
    },
    {
      "type": "Feature",
      "properties": {
        "norad_id": 43689,
        "name": "METOP-C",
        "group": "weather",
        "lat": -28.35778472125859,
        "lon": -150.4352240790875,
        "alt_km": 827.1352409403125,
        "timestamp": "2025-12-02T08:59:32.362451+00:00",
        "meta_object_name": "METOP-C",
        "meta_object_id": "2018-087A",
        "meta_epoch": "2025-12-02T04:38:07.759104",
        "meta_mean_motion": 14.21505295,
        "meta_eccentricity": 0.0001749,
        "meta_inclination": 98.6945,
        "meta_ra_of_asc_node": 34.1236,
        "meta_arg_of_pericenter": 59.4741,
        "meta_mean_anomaly": 300.6608,
        "meta_ephemeris_type": 0,
        "meta_classification_type": "U",
        "meta_norad_cat_id": 43689,
        "meta_element_set_no": 999,
        "meta_rev_at_epoch": 36684,
        "meta_bstar": 9.8625e-05,
        "meta_mean_motion_dot": 1.72e-06,
        "meta_mean_motion_ddot": 0,
        "tle_line1": "1 43689U 18087A   25336.19314536  .00000172  00000+0  98625-4 0  9998",
        "tle_line2": "2 43689  98.6945  34.1236 0001749  59.4741 300.6608 14.21505295366847"
      },
      "geometry": {
        "type": "Point",
        "coordinates": [
          -150.4352240790875,
          -28.35778472125859
        ]
      }
    }
  ]
}